{
  "norad_id": 59855,
  "name": "STARLINK-31882",
  "history": [
    {
      "epoch": "2026-03-28T21:21:10.541376",
      "apogee_km": 483.87447038702794,
      "perigee_km": 482.20857624156724,
      "latitude_deg": 0.49118102672553665,
      "longitude_deg": -109.08828735980205,
      "semi_major_axis_km": 6861.178523314297,
      "eccentricity": 0.0001214,
      "inclination_deg": 43.001,
      "raan_deg": 158.9526,
      "arg_perigee_deg": 267.8007,
      "mean_anomaly_deg": 92.2705,
      "mean_motion_rev_day": 15.27582529
    }
  ]
}